#dP2022  7 20  0  0  0.00000000      97 __u+U IGS14 FIT  IAC
## 2219 259200.00000000   900.00000000 59780 0.0000000000000
+  116   C06C07C08C09C10C11C12C13C14C16C19C20C21C22C23C24C25
+        C26C27C28C29C30C32C33C34C35C36C37C38C39C40C41C42C43
+        C44C45C46E01E02E03E04E05E07E08E09E10E11E12E13E14E15
+        E18E19E21E24E25E26E27E30E31E33E34E36G01G02G03G04G05
+        G06G07G08G09G10G11G12G13G14G15G16G17G18G19G20G21G22
+        G23G24G25G26G27G28G29G30G31G32J02J03R01R02R03R04R05
+        R07R08R09R11R12R13R14R15R17R18R19R20R21R24  0  0  0
++         7  7  7  7  7  6  6  7  7  7  6  6  6  5  6  5  6
++         6  6  5  6  6  6  5  5  6  6  6  6  6  6  6  6  5
++         6  6  6  4  4  4  4  4  4  4  5  4  4  4  4  4  4
++         5  4  4  4  4  4  4  4  4  4  4  4  3  4  3  3  4
++         3  3  4  3  3  3  3  4  3  3  4  3  3  3  4  3  3
++         3  3  3  3  3  4  3  3  3  3  9  9  6  6  6  6  6
++         6  6  6  6  6  7  6  6  6  6  7  7  6  6  0  0  0
%c M  cc GPS ccc cccc cccc cccc cccc ccccc ccccc ccccc ccccc
%c cc cc ccc ccc cccc cccc cccc cccc ccccc ccccc ccccc ccccc
%f  1.2500000  1.025000000  0.00000000000  0.000000000000000
%f  0.0000000  0.000000000  0.00000000000  0.000000000000000
%i    0    0    0    0      0      0      0      0         0
%i    0    0    0    0      0      0      0      0         0
/* INFORMATION & ANALYSIS CENTER (IAC)            FINAL DATA
/* S/V CLOCKS ARE ALIGNED TO GNSS TIME                      
/* G:C1WC2W R:C1PC2P E:C1XC5X C:C2IC6I J:C1CC2S             
/* PCV:IGS14_2215 OL/AL:FES2004  NONE     YN ORB:CoN CLK:CoN
*  2022 07 20 14 30  0.00000000
PC06  -5821.635635  24104.593786  34126.287424    434.221725
PC07 -16522.005496  35785.767138 -15153.931813   -454.541361
PC08  -1561.432604  38639.838369 -16586.498844    411.442896
PC09   2567.518102  26654.823527  33049.266682   -921.820929
PC10 -11087.842177  35719.589342 -19657.751691    116.746510
PC11  15869.437565  -9590.697388  20901.154842    485.872218
PC12  26716.074559   2379.235213   7693.893248   -572.489576
PC13   1952.750777  40248.542904 -11801.631226     29.380805
PC14  19025.367003 -20333.929963  -1201.254798    549.987629
PC16  -8430.730081  22718.699047  34691.232762    143.290023
PC19 -12516.939950  22700.111540  10388.325827   -250.549827
PC20 -22024.734606  15917.876396  -6414.668732   -963.968311
PC21  18877.056549   1016.816544  20532.129401    -20.569269
PC22   4591.481743  16675.496017  21904.346706   -962.944694
PC23  -9656.816407 -25911.301689   3763.500339   -948.299373
PC24  14653.630251  -7779.496707 -22441.463173   -967.676983
PC25   2266.464335 -24765.892770 -12681.394826   -704.867746
PC26  17323.738933  11031.281088 -18885.471792    706.870671
PC27 -26655.595055  -8187.414512    936.458467    757.143507
PC28 -15519.231968 -16268.609264  16533.750757     92.178736
PC29  -5073.841683  15139.562771 -22896.933993    584.237500
PC30 -23016.648077   5121.636318 -14922.285641    501.283736
PC32 -18876.110467   -894.742353 -20525.597715      0.031768
PC33  12444.530314 -22753.393125 -10273.712967   -210.906584
PC34  22366.354088  -5792.945395  15648.410946   -354.623976
PC35  14932.006062  16046.641639 -17300.002051    374.522885
PC36  -3262.010545  24410.853294  13153.059681   -972.244978
PC37 -16923.889833 -12712.204726  18216.584975   -919.292068
PC38  -7038.369420  34904.701407 -22426.215869     11.435985
PC39 -14419.579245  20510.135384  33891.177303     -0.096752
PC40 -24093.571437  31769.714564 -14027.556925     -0.891029
PC41  -4206.237125 -16983.452329 -21689.067865    -96.194989
PC42  22228.737343 -15105.766274   7509.423040   -952.946370
PC43   5987.821644 -14984.013453  22756.041295      3.995716
PC44  26897.641720   7400.142109  -1180.555739    730.143679
PC45   9813.611397  25793.385946  -4065.218221    813.827793
PC46 -13897.780826   9471.093802  22273.403488   -442.084093
PE01   2251.913053 -28471.310702   7782.821261   -518.805731
PE02  -2132.278241  28430.349275  -7935.732532    313.148184
PE03   -111.105090  17469.730427  23897.267278   -580.949768
PE04 -20121.431065  -8981.488811 -19757.531683  -1075.531925
PE05 -20680.942365  15847.357756  14057.544862   -161.210846
PE07  28914.071966  -5028.231454   3815.134617   -689.216096
PE08  20243.879922   8712.441947  19756.347484   -566.918273
PE09 -28906.355486   5151.572681  -3816.366336   -594.195142
PE10 -23947.358844 -13317.671225 -11221.484320   -501.828689
PE11 -22060.590562  -4166.601653 -19303.721428   2941.963001
PE12 -21845.521449 -19877.200020  -1866.263109    -72.002346
PE13  22298.077780   4870.594752  18843.945294    429.896268
PE14  24630.124147   4384.080989  -8236.865626  -1773.575670
PE15  21823.329447  19927.478221   1681.891390    732.081399
PE18 -29732.997046   6971.968266  -5344.357271  -1191.934059
PE19   3055.322163 -17742.581858 -23486.767070  -5040.148442
PE21  13454.746382 -24500.454399  -9731.868650   -747.007096
PE24 -17767.938846   4882.802727  23154.548735   -735.293868
PE25 -13598.660214  24318.641778  10005.265761   -581.716739
PE26   9017.947333 -13743.764633  24611.493184  -1398.981757
PE27  17782.494591  -6236.181366 -22819.588964   -349.179964
PE30  11094.482897  16452.846198 -21963.734591   -687.615669
PE31 -11616.623327 -15530.228826  22373.064186   -500.241196
PE33  -8483.224335 -23149.386078  16373.097875   -454.535876
PE34   8671.428284  23173.890601 -16251.535954   -486.797435
PE36  -9683.889836  12926.479738 -24811.095408   -404.887888
PG01  20050.179531  11013.713978  13477.298414    317.741040
PG02 -14671.844647 -21384.784216   6008.376861   -651.049409
PG03  15022.083849   1895.059762  21690.803503   -312.093735
PG04  25337.998307   2282.651177   7798.211600   -143.616278
PG05  -8928.360972 -15964.402370 -19381.650153    -89.836351
PG06  -1440.192045 -20065.886045  17362.352159    392.724264
PG07  15340.203464  -4689.696685 -20828.412607    318.559887
PG08  21265.085995   6547.120560 -14801.389589    -76.997296
PG09  25539.579923  -6776.247762  -2964.983908   -317.107828
PG10 -11426.898322  23515.636161  -3500.127278   -498.657018
PG11 -11281.789985 -23165.273957   6496.470104    -10.475358
PG12 -13820.314511  -5646.722479  21701.062104   -249.368436
PG13 -12623.418691 -13125.173926 -19554.632614    352.103007
PG14  13285.514635 -22406.337318  -4891.711519   -111.565560
PG15 -21841.250443  -5054.501815 -14894.502159    -43.920007
PG16   2941.357251  20356.801781 -16817.415184   -516.393906
PG17  15879.504214 -13183.221731  17180.025845    639.044354
PG18 -14746.330838   5017.754211 -21540.654325    107.569885
PG19   6608.004193 -14507.931006  20946.704946    186.226648
PG20  -2287.364061 -24615.868915 -10006.045295    501.644672
PG21  20948.180779  16198.935688   5574.118223    161.024480
PG22  -3286.779194  15464.931120  21741.469995    295.583205
PG23 -15543.886012  16877.102971 -13292.804969    -33.737843
PG24 -21556.989286 -12803.891383   9060.651233    191.927764
PG25 -16904.005004   9174.669496  17912.290587    351.366716
PG26  -2301.715272  25266.938306  -7383.033963    219.276002
PG27   9254.400258  13260.810026 -21355.431158    220.894810
PG28   8471.283762 -24917.072281   4918.469256    335.958639
PG29 -26019.527328   4458.170001  -3341.791177   -535.315900
PG30   7535.390368 -14884.311191 -20528.288035   -534.393460
PG31   2944.470631  21297.122199  15152.873141   -186.489909
PG32 -12564.394446  14978.282335  18038.841658   -181.310010
PJ02 -30509.157462  25660.656740  18818.361299     -1.933956
PJ03 -25713.636657  17956.764867 -23596.217652     -0.198138
PR01 -21350.865609  13639.923588  -3027.231254     11.789613
PR02 -11486.115164  16605.506873  15590.799128    524.685423
PR03   4997.863479   9806.980011  23053.243704     60.537944
PR04  18241.129523  -2406.138792  17699.737357    151.283560
PR05  21691.701106 -13192.729825   2600.458216     96.539812
PR07  -5580.949745  -9379.927941 -23016.790072     38.128106
PR08 -18339.439114   2542.547804 -17476.226725    -66.305901
PR09   1213.632225 -24339.866398  -7377.584457     66.789342
PR11 -10985.976004  -8599.983528  21364.813911     32.754099
PR12  -8974.770300  11820.996832  20773.307362     19.395827
PR13  -1929.595312  23881.127898   8752.235976    -24.814564
PR14   6831.631697  22481.722685  -9937.757782     24.813200
PR15  11058.127951   7764.179622 -21611.629689     94.592226
PR17  16250.288557  14519.369972 -13220.141193    545.151498
PR18  23317.897730   9910.090518   3165.796232     33.623681
PR19  18861.311143   1355.652905  17107.471682   -196.999022
PR20   1291.622263 -10873.978506  23035.128731    -74.974143
PR21 -17347.249196 -14456.288608  11888.267731   -318.923694
PR24   -491.197591  11616.960036 -22691.980948    104.538356
EOF
